[{"OBJECT_NAME":"STARLINK-35002","OBJECT_ID":"2025-184U","EPOCH":"2026-03-09T17:44:49.746624","MEAN_MOTION":15.05659354,"ECCENTRICITY":0.00013852,"INCLINATION":97.6007,"RA_OF_ASC_NODE":122.6359,"ARG_OF_PERICENTER":154.5242,"MEAN_ANOMALY":205.6053,"EPHEMERIS_TYPE":0,"CLASSIFICATION_TYPE":"U","NORAD_CAT_ID":65291,"ELEMENT_SET_NO":999,"REV_AT_EPOCH":3130,"BSTAR":0.00050234034,"MEAN_MOTION_DOT":7.197e-5,"MEAN_MOTION_DDOT":0},{"OBJECT_NAME":"KUIPER-00232","OBJECT_ID":"2025-301R","EPOCH":"2026-03-09T22:00:01.999584","MEAN_MOTION":15.06812029,"ECCENTRICITY":0.0002965,"INCLINATION":51.8873,"RA_OF_ASC_NODE":65.5535,"ARG_OF_PERICENTER":139.5556,"MEAN_ANOMALY":115.4886,"EPHEMERIS_TYPE":0,"CLASSIFICATION_TYPE":"U","NORAD_CAT_ID":67148,"ELEMENT_SET_NO":999,"REV_AT_EPOCH":493,"BSTAR":-0.072865786,"MEAN_MOTION_DOT":-0.01020247,"MEAN_MOTION_DDOT":0}]
